     2.100          NAVIGATION                              RINEX VERSION / TYPE
fic2rin                                 04/09/2016 00:47:19 PGM / RUN BY / DATE
                                                            END OF HEADER
 9 16  4  8 18  0  0.0  .105993356556D-03  .750333128963D-11  .000000000000D+00
     .270000000000D+02  .111625000000D+03  .457376194412D-08 -.930541390453D+00
     .562146306038D-05  .647193635814D-03  .114571303129D-04  .515361183929D+04
     .496800000000D+06  .260770320892D-07  .796775755674D+00 -.316649675369D-07
     .955595261110D+00  .159750000000D+03  .208820734171D+01 -.810355183117D-08
     .392159192147D-09  .100000000000D+01  .189100000000D+04  .000000000000D+00
     .240000000000D+01  .000000000000D+00  .139698386192D-08  .270000000000D+02
     .489606000000D+06  .400000000000D+01
10 16  4  8 18  0  0.0  .703567638993D-05 -.977706804406D-11  .000000000000D+00
     .100000000000D+03 -.413125000000D+02  .447554356721D-08  .114386159587D+01
    -.222027301788D-05  .137031113263D-02  .114142894745D-04  .515368799591D+04
     .496800000000D+06  .409781932831D-07 -.246723678083D+00  .223517417908D-07
     .959900264750D+00  .158343750000D+03 -.278017541104D+01 -.800676208521D-08
    -.587524472753D-09  .100000000000D+01  .189100000000D+04  .000000000000D+00
     .240000000000D+01  .000000000000D+00  .232830643654D-08  .100000000000D+03
     .489606000000D+06  .400000000000D+01
11 16  4  8 18  0  0.0 -.639987643808D-03 -.147792889038D-11  .000000000000D+00
     .540000000000D+02  .606875000000D+02  .622883088438D-08  .281928675996D+01
     .314787030220D-05  .162609384861D-01  .487267971039D-05  .515365123749D+04
     .496800000000D+06  .184401869774D-06 -.165788041097D+01 -.800937414169D-07
     .895763882218D+00  .247156250000D+03  .151319635002D+01 -.875572185382D-08
     .457519057505D-09  .100000000000D+01  .189100000000D+04  .000000000000D+00
     .240000000000D+01  .000000000000D+00 -.121071934700D-07  .540000000000D+02
     .489606000000D+06  .400000000000D+01
12 16  4  8 18  0  0.0  .375567004085D-03  .136424205266D-11  .000000000000D+00
     .910000000000D+02 -.116593750000D+03  .367443876941D-08  .221646265563D+01
    -.629387795925D-05  .606656295713D-02  .108350068331D-04  .515376074600D+04
     .496800000000D+06 -.132247805595D-06  .295032682036D+01 -.577419996262D-07
     .990591468282D+00  .186156250000D+03  .706004673208D+00 -.763567519938D-08
    -.489663253583D-09  .100000000000D+01  .189100000000D+04  .000000000000D+00
     .240000000000D+01  .000000000000D+00 -.125728547573D-07  .910000000000D+02
     .489606000000D+06  .400000000000D+01
14 16  4  8 18  0  0.0 -.722985714674D-05 -.216004991671D-11  .000000000000D+00
     .890000000000D+02  .139437500000D+03  .444268505567D-08 -.830201846519D+00
     .734440982342D-05  .844454369508D-02  .100489705801D-04  .515400676346D+04
     .496800000000D+06 -.335276126862D-07  .880017669845D+00  .163912773132D-06
     .964449426493D+00  .191687500000D+03 -.196667780537D+01 -.820462746995D-08
     .470376735936D-09  .100000000000D+01  .189100000000D+04  .000000000000D+00
     .240000000000D+01  .000000000000D+00 -.931322574615D-08  .890000000000D+02
     .489606000000D+06  .400000000000D+01
15 16  4  8 18  0  0.0 -.305545516312D-03 -.170530256582D-11  .000000000000D+00
     .340000000000D+02  .121937500000D+03  .508378318855D-08 -.160366446215D+01
     .607408583164D-05  .808202370536D-02  .104084610939D-04  .515357469177D+04
     .496800000000D+06  .670552253723D-07  .745410991760D+00 -.102445483208D-06
     .931381171261D+00  .160218750000D+03  .481319591202D+00 -.828677374882D-08
     .413588656199D-09  .100000000000D+01  .189100000000D+04  .000000000000D+00
     .240000000000D+01  .000000000000D+00 -.107102096081D-07  .340000000000D+02
     .489606000000D+06  .400000000000D+01
16 16  4  8 18  0  0.0 -.260421074927D-04  .284217094304D-11  .000000000000D+00
     .280000000000D+02 -.128812500000D+03  .380230123825D-08  .171030785467D+00
    -.668689608574D-05  .874635518994D-02  .104736536741D-04  .515373921204D+04
     .496800000000D+06  .122934579849D-06  .296908297205D+01  .800937414169D-07
     .991115792751D+00  .189281250000D+03  .355649254996D+00 -.789818613401D-08
    -.570380901511D-09  .100000000000D+01  .189100000000D+04  .000000000000D+00
     .240000000000D+01  .000000000000D+00 -.107102096081D-07  .280000000000D+02
     .489606000000D+06  .400000000000D+01
17 16  4  8 18  0  0.0 -.202936585993D-03 -.341060513165D-12  .000000000000D+00
     .180000000000D+02  .354062500000D+02  .408409869053D-08 -.751715463555D+00
     .190176069736D-05  .109589429339D-01  .116508454084D-04  .515367199898D+04
     .496800000000D+06 -.186264514923D-07 -.229255870506D+01  .160187482834D-06
     .975888041471D+00  .167187500000D+03 -.193173063083D+01 -.796354599937D-08
     .491091884520D-09  .100000000000D+01  .189100000000D+04  .000000000000D+00
     .240000000000D+01  .000000000000D+00 -.107102096081D-07  .180000000000D+02
     .489606000000D+06  .400000000000D+01
18 16  4  8 18  0  0.0  .502491835505D-03  .420641299570D-11  .000000000000D+00
     .670000000000D+02 -.469375000000D+02  .541201114627D-08  .808852799806D+00
    -.248476862907D-05  .169710969785D-01  .108778476715D-04  .515367527962D+04
     .496800000000D+06 -.221654772758D-06 -.273928746369D+00  .484287738800D-07
     .925356169484D+00  .153593750000D+03 -.189935166017D+01 -.873643533617D-08
    -.662527596934D-09  .100000000000D+01  .189100000000D+04  .000000000000D+00
     .240000000000D+01  .000000000000D+00 -.121071934700D-07  .670000000000D+02
     .489606000000D+06  .400000000000D+01
19 16  4  8 18  0  0.0 -.525584444404D-03 -.113686837722D-12  .000000000000D+00
     .170000000000D+02  .361562500000D+02  .403052503040D-08  .238419325590D+01
     .159628689289D-05  .107643809170D-01  .113677233458D-04  .515361573982D+04
     .496800000000D+06 -.782310962677D-07 -.224366483904D+01 -.229105353355D-06
     .972939203852D+00  .168562500000D+03  .737199041562D+00 -.771174979676D-08
     .489306095849D-09  .100000000000D+01  .189100000000D+04  .000000000000D+00
     .240000000000D+01  .000000000000D+00 -.149011611938D-07  .170000000000D+02
     .489606000000D+06  .400000000000D+01
20 16  4  8 18  0  0.0  .404673162848D-03  .250111042988D-11  .000000000000D+00
     .520000000000D+02 -.550312500000D+02  .522164607395D-08 -.152662380359D+01
    -.260211527348D-05  .469342595898D-02  .999122858047D-05  .515371993065D+04
     .496800000000D+06  .279396772385D-07 -.325801388627D+00  .130385160446D-06
     .926574917759D+00  .164218750000D+03  .135630713719D+01 -.839713548868D-08
    -.495734935064D-09  .100000000000D+01  .189100000000D+04  .000000000000D+00
     .240000000000D+01  .000000000000D+00 -.838190317154D-08  .520000000000D+02
     .489606000000D+06  .400000000000D+01
21 16  4  8 18  0  0.0 -.518270768225D-03 -.147792889038D-11  .000000000000D+00
     .760000000000D+02  .165625000000D+01  .564487798897D-08  .167671803404D+01
    -.435858964920D-06  .233587258263D-01  .367872416973D-05  .515362631798D+04
     .496800000000D+06 -.875443220139D-07 -.131629148839D+01 -.607222318649D-06
     .935593902807D+00  .297031250000D+03 -.180508315019D+01 -.876715090131D-08
     .111433213069D-09  .100000000000D+01  .189100000000D+04  .000000000000D+00
     .240000000000D+01  .000000000000D+00 -.102445483208D-07  .760000000000D+02
     .489606000000D+06  .400000000000D+01
22 16  4  8 18  0  0.0  .366437714547D-03 -.727595761418D-11  .000000000000D+00
     .500000000000D+02 -.555312500000D+02  .539379610183D-08 -.955785169820D+00
    -.266917049885D-05  .785043393262D-02  .106673687696D-04  .515505059814D+04
     .496800000000D+06  .484287738800D-07 -.273195704452D+00  .132247805595D-06
     .923228805717D+00  .153187500000D+03 -.199861513862D+01 -.855142762986D-08
    -.539308178636D-09  .100000000000D+01  .189100000000D+04  .000000000000D+00
     .240000000000D+01  .000000000000D+00 -.176951289177D-07  .500000000000D+02
     .489606000000D+06  .400000000000D+01
23 16  4  8 18  0  0.0 -.168473459780D-03 -.170530256582D-11  .000000000000D+00
     .380000000000D+02  .119062500000D+03  .468983820773D-08 -.204240485859D+01
     .580027699471D-05  .107075680280D-01  .115595757961D-04  .515370788956D+04
     .496800000000D+06  .145286321640D-06  .802465858930D+00 -.117346644402D-06
     .946538899967D+00  .147187500000D+03 -.259759071949D+01 -.810676625078D-08
     .537879547699D-09  .100000000000D+01  .189100000000D+04  .000000000000D+00
     .240000000000D+01  .000000000000D+00 -.200234353542D-07  .380000000000D+02
     .489606000000D+06  .400000000000D+01
24 16  4  8 18  0  0.0 -.151935964823D-04 -.568434188608D-12  .000000000000D+00
     .140000000000D+02  .153750000000D+02  .538522431621D-08 -.265810097868D+01
     .741332769394D-06  .438510300592D-02  .650063157082D-06  .515362246323D+04
     .496800000000D+06 -.149011611938D-07  .182882715326D+01 -.145286321640D-06
     .949630214104D+00  .361218750000D+03  .408776726940D+00 -.880608109434D-08
     .417874549009D-10  .100000000000D+01  .189100000000D+04  .000000000000D+00
     .240000000000D+01  .000000000000D+00  .232830643654D-08  .140000000000D+02
     .489606000000D+06  .400000000000D+01
25 16  4  8 18  0  0.0 -.149349216372D-03 -.704858393874D-11  .000000000000D+00
     .260000000000D+02 -.116593750000D+03  .407909848225D-08  .167780842734D+01
    -.611133873463D-05  .549667398445D-02  .103227794170D-04  .515377581596D+04
     .496800000000D+06 -.163912773132D-06  .290001622058D+01  .968575477600D-07
     .978822222114D+00  .191500000000D+03  .736483883819D+00 -.792961601462D-08
    -.512164190837D-09  .100000000000D+01  .189100000000D+04  .000000000000D+00
     .240000000000D+01  .000000000000D+00  .558793544769D-08  .260000000000D+02
     .489606000000D+06  .400000000000D+01
